NORAD_CAT_ID,OBJECT_NAME,OBJECT_TYPE,EPOCH,MEAN_MOTION,ECCENTRICITY,INCLINATION,RA_OF_ASC_NODE,ARG_OF_PERICENTER,MEAN_ANOMALY,BSTAR,MEAN_MOTION_DOT,MEAN_MOTION_DDOT,TLE_LINE0,TLE_LINE1,TLE_LINE2,SEMIMAJOR_AXIS,PERIOD,APOGEE,PERIGEE,DECAYED
52989.0,STARLINK-4293,PAYLOAD,2023-12-06 17:18:02,15.08833363,0.000191,53.216,203.0586,73.6385,286.4817,-2.4836e-05,-6.83e-06,0.0,0 STARLINK-4293,1 52989U 22076D   23340.72086474 -.00000683  00000-0 -24836-4 0  9996,2 52989  53.2160 203.0586 0001910  73.6385 286.4817 15.08833363 78785,6917.901,95.438,541.087,538.444,0.0
52989.0,STARLINK-4293,PAYLOAD,2023-12-06 22:04:11,15.08835926,0.0001733,53.2167,202.1607,120.5349,239.5814,3.717e-05,3.03e-06,0.0,0 STARLINK-4293,1 52989U 22076D   23340.91958014  .00000303  00000-0  37170-4 0  9997,2 52989  53.2167 202.1607 0001733 120.5349 239.5814 15.08835926 78346,6917.893,95.438,540.957,538.559,0.0
52989.0,STARLINK-4293,PAYLOAD,2023-12-07 01:14:58,15.08833862,0.0001641,53.2151,201.5737,91.3282,268.7898,3.2648e-05,2.32e-06,0.0,0 STARLINK-4293,1 52989U 22076D   23341.05206402  .00000232  00000-0  32648-4 0  9996,2 52989  53.2151 201.5737 0001641  91.3282 268.7898 15.08833862 78360,6917.899,95.438,540.899,538.629,0.0
52989.0,STARLINK-4293,PAYLOAD,2023-12-07 23:30:21,15.0886443,0.0001305,53.2149,197.4107,86.244,273.8701,-0.00035428,-5.926e-05,0.0,0 STARLINK-4293,1 52989U 22076D   23341.97941489 -.00005926  00000-0 -35428-3 0  9993,2 52989  53.2149 197.4107 0001305  86.2440 273.8701 15.08864430 78979,6917.806,95.436,540.573,538.768,0.0
52989.0,STARLINK-4293,PAYLOAD,2023-12-08 23:21:09,15.08839036,0.0001353,53.2149,192.9504,89.6082,270.5065,8.6747e-05,1.093e-05,0.0,0 STARLINK-4293,1 52989U 22076D   23342.97302247  .00001093  00000-0  86747-4 0  9997,2 52989  53.2149 192.9504 0001353  89.6082 270.5065 15.08839036 79121,6917.883,95.438,540.684,538.812,0.0
52989.0,STARLINK-4293,PAYLOAD,2023-12-10 13:30:23,15.08848264,0.0001714,53.2149,185.8122,81.2604,278.8582,9.5577e-05,1.234e-05,0.0,0 STARLINK-4293,1 52989U 22076D   23344.56277335  .00001234  00000-0  95577-4 0  9991,2 52989  53.2149 185.8122 0001714  81.2604 278.8582 15.08848264 78898,6917.855,95.437,540.906,538.534,0.0
52989.0,STARLINK-4293,PAYLOAD,2023-12-10 19:51:55,15.08849378,9.97e-05,53.2154,184.6233,102.4542,257.6562,-8.7115e-05,-1.674e-05,0.0,0 STARLINK-4293,1 52989U 22076D   23344.82772396 -.00001674  00000-0 -87115-4 0  9996,2 52989  53.2154 184.6233 0000997 102.4542 257.6562 15.08849378 79401,6917.852,95.437,540.406,539.027,0.0
52989.0,STARLINK-4293,PAYLOAD,2023-12-11 19:42:44,15.08827167,0.0001414,53.2148,180.1629,67.8457,292.2685,6.2657e-05,7.09e-06,0.0,0 STARLINK-4293,1 52989U 22076D   23345.82134439  .00000709  00000-0  62657-4 0  9997,2 52989  53.2148 180.1629 0001414  67.8457 292.2685 15.08827167 79557,6917.92,95.438,540.763,538.806,0.0
52989.0,STARLINK-4293,PAYLOAD,2023-12-12 19:33:31,15.08833376,0.0001342,53.2152,175.702,82.6529,277.4616,9.8338e-05,1.277e-05,0.0,0 STARLINK-4293,1 52989U 22076D   23346.81494555  .00001277  00000-0  98338-4 0  9991,2 52989  53.2152 175.7020 0001342  82.6529 277.4616 15.08833376 79235,6917.901,95.438,540.694,538.837,0.0
52989.0,STARLINK-4293,PAYLOAD,2023-12-13 19:24:18,15.08839665,0.000136,53.2151,171.2401,79.8115,280.303,0.00011209,1.496e-05,0.0,0 STARLINK-4293,1 52989U 22076D   23347.80854437  .00001496  00000-0  11209-3 0  9994,2 52989  53.2151 171.2401 0001360  79.8115 280.3030 15.08839665 79383,6917.881,95.438,540.687,538.806,0.0
52989.0,STARLINK-4293,PAYLOAD,2023-12-14 17:39:42,15.08842843,0.0001391,53.2154,167.0771,82.3451,277.7699,7.7444e-05,9.45e-06,0.0,0 STARLINK-4293,1 52989U 22076D   23348.73590370  .00000945  00000-0  77444-4 0  9992,2 52989  53.2154 167.0771 0001391  82.3451 277.7699 15.08842843 79995,6917.872,95.437,540.699,538.774,0.0
52989.0,STARLINK-4293,PAYLOAD,2023-12-15 19:05:53,15.08830206,0.0001424,53.2159,162.3185,80.6026,279.5127,-5.3398e-05,-1.137e-05,0.0,0 STARLINK-4293,1 52989U 22076D   23349.79575611 -.00001137  00000-0 -53398-4 0  9998,2 52989  53.2159 162.3185 0001424  80.6026 279.5127 15.08830206 80159,6917.91,95.438,540.76,538.79,0.0
52989.0,STARLINK-4293,PAYLOAD,2023-12-16 18:56:40,15.08839825,0.0001307,53.2154,157.8563,100.8502,259.2638,-5.4413e-05,-1.154e-05,0.0,0 STARLINK-4293,1 52989U 22076D   23350.78935403 -.00001154  00000-0 -54413-4 0  9996,2 52989  53.2154 157.8563 0001307 100.8502 259.2638 15.08839825 80302,6917.881,95.438,540.65,538.842,0.0
52989.0,STARLINK-4293,PAYLOAD,2023-12-17 17:12:04,15.08837259,0.0001411,53.216,153.6923,75.5532,284.5616,0.00018337,2.631e-05,0.0,0 STARLINK-4293,1 52989U 22076D   23351.71671351  .00002631  00000-0  18337-3 0  9992,2 52989  53.2160 153.6923 0001411  75.5532 284.5616 15.08837259 79977,6917.889,95.438,540.73,538.778,0.0
52989.0,STARLINK-4293,PAYLOAD,2023-12-18 17:02:50,15.08852054,0.000136,53.2157,149.2385,82.1004,278.0142,0.00019899,2.881e-05,0.0,0 STARLINK-4293,1 52989U 22076D   23352.71030437  .00002881  00000-0  19899-3 0  9998,2 52989  53.2157 149.2385 0001360  82.1004 278.0142 15.08852054 80599,6917.844,95.437,540.649,538.768,0.0
52989.0,STARLINK-4293,PAYLOAD,2023-12-19 13:42:51,15.08828759,0.0001558,53.2167,145.3837,95.772,264.345,0.00064941,0.00010059,0.0,0 STARLINK-4293,1 52989U 22076D   23353.57143512  .00010059  00000-0  64941-3 0  9996,2 52989  53.2167 145.3837 0001558  95.7720 264.3450 15.08828759 80251,6917.915,95.438,540.858,538.702,0.0
52989.0,STARLINK-4293,PAYLOAD,2023-12-19 16:53:37,15.08851313,0.0001346,53.2163,144.7873,97.2008,262.9137,3.1632e-05,2.16e-06,0.0,0 STARLINK-4293,1 52989U 22076D   23353.70390415  .00000216  00000-0  31632-4 0  9993,2 52989  53.2163 144.7873 0001346  97.2008 262.9137 15.08851313 80743,6917.846,95.437,540.642,538.78,0.0
52989.0,STARLINK-4293,PAYLOAD,2023-12-20 13:33:38,15.08843421,0.0001321,53.2162,140.9127,102.6026,257.5114,-8.4265e-05,-1.629e-05,0.0,0 STARLINK-4293,1 52989U 22076D   23354.56502908 -.00001629  00000-0 -84265-4 0  9991,2 52989  53.2162 140.9127 0001321 102.6026 257.5114 15.08843421 80405,6917.87,95.437,540.649,538.821,0.0
52989.0,STARLINK-4293,PAYLOAD,2023-12-20 16:44:24,15.08839994,0.0001313,53.2162,140.3146,80.4931,279.6209,-3.1679e-05,-7.92e-06,0.0,0 STARLINK-4293,1 52989U 22076D   23354.69751035 -.00000792  00000-0 -31679-4 0  9993,2 52989  53.2162 140.3146 0001313  80.4931 279.6209 15.08839994 80892,6917.88,95.438,540.654,538.837,0.0
52989.0,STARLINK-4293,PAYLOAD,2023-12-21 14:59:48,15.08838292,0.0001236,53.2162,136.1515,85.8634,274.2499,9.8299e-06,-1.31e-06,0.0,0 STARLINK-4293,1 52989U 22076D   23355.62487202 -.00000131  00000-0  98299-5 0  9997,2 52989  53.2162 136.1515 0001236  85.8634 274.2499 15.08838292 80564,6917.886,95.438,540.606,538.896,0.0
52989.0,STARLINK-4293,PAYLOAD,2023-12-22 14:50:35,15.08841174,0.0001286,53.2163,131.691,86.5401,273.5738,0.00016031,2.264e-05,0.0,0 STARLINK-4293,1 52989U 22076D   23356.61846947  .00002264  00000-0  16031-3 0  9992,2 52989  53.2163 131.6910 0001286  86.5401 273.5738 15.08841174 80717,6917.877,95.437,540.631,538.852,0.0
52989.0,STARLINK-4293,PAYLOAD,2023-12-23 14:41:23,15.08841401,0.0001343,53.2165,127.2301,93.7351,266.3795,6.4139e-05,7.33e-06,0.0,0 STARLINK-4293,1 52989U 22076D   23357.61207309  .00000733  00000-0  64139-4 0  9998,2 52989  53.2165 127.2301 0001343  93.7351 266.3795 15.08841401 80864,6917.876,95.437,540.67,538.812,0.0
52989.0,STARLINK-4293,PAYLOAD,2023-12-23 17:52:09,15.08843987,0.0001401,53.2169,126.6359,71.5313,288.5832,8.0148e-05,9.88e-06,0.0,0 STARLINK-4293,1 52989U 22076D   23357.74455180  .00000988  00000-0  80148-4 0  9994,2 52989  53.2169 126.6359 0001401  71.5313 288.5832 15.08843987 81355,6917.868,95.437,540.702,538.764,0.0
52989.0,STARLINK-4293,PAYLOAD,2023-12-24 14:32:09,15.08846611,0.000136,53.2153,122.7742,68.2358,291.8779,4.0584e-05,3.58e-06,0.0,0 STARLINK-4293,1 52989U 22076D   23358.60567087  .00000358  00000-0  40584-4 0  9991,2 52989  53.2153 122.7742 0001360  68.2358 291.8779 15.08846611 81014,6917.86,95.437,540.666,538.784,0.0
52989.0,STARLINK-4293,PAYLOAD,2023-12-24 16:07:32,15.0884726,0.0001363,53.2157,122.4763,72.6555,287.4586,0.00012827,1.754e-05,0.0,0 STARLINK-4293,1 52989U 22076D   23358.67190854  .00001754  00000-0  12827-3 0  9991,2 52989  53.2157 122.4763 0001363  72.6555 287.4586 15.08847260 81028,6917.858,95.437,540.666,538.78,0.0
52989.0,STARLINK-4293,PAYLOAD,2023-12-25 11:12:10,15.08845749,0.0001109,53.2182,118.8995,107.5248,252.5865,8.7845e-05,1.111e-05,0.0,0 STARLINK-4293,1 52989U 22076D   23359.46678624  .00001111  00000-0  87845-4 0  9995,2 52989  53.2182 118.8995 0001109 107.5248 252.5865 15.08845749 81615,6917.863,95.437,540.495,538.961,0.0
52989.0,STARLINK-4293,PAYLOAD,2023-12-25 14:22:58,15.0881977,0.0001521,53.2161,118.3137,57.8883,302.2256,-0.00011255,-2.078e-05,0.0,0 STARLINK-4293,1 52989U 22076D   23359.59928979 -.00002078  00000-0 -11255-3 0  9996,2 52989  53.2161 118.3137 0001521  57.8883 302.2256 15.08819770 81167,6917.942,95.439,540.859,538.755,0.0
52989.0,STARLINK-4293,PAYLOAD,2023-12-26 07:52:12,15.08841864,0.0001066,53.2175,115.0369,124.5877,235.5215,-0.00019772,-3.433e-05,0.0,0 STARLINK-4293,1 52989U 22076D   23360.32792153 -.00003433  00000-0 -19772-3 0  9990,2 52989  53.2175 115.0369 0001066 124.5877 235.5215 15.08841864 81748,6917.875,95.437,540.477,539.002,0.0
52989.0,STARLINK-4293,PAYLOAD,2023-12-26 14:13:44,15.08847693,0.0001314,53.216,113.8512,89.728,270.3862,5.9423e-05,6.58e-06,0.0,0 STARLINK-4293,1 52989U 22076D   23360.59287285  .00000658  00000-0  59423-4 0  9996,2 52989  53.2160 113.8512 0001314  89.7280 270.3862 15.08847693 81318,6917.857,95.437,540.631,538.813,0.0
52989.0,STARLINK-4293,PAYLOAD,2023-12-27 10:53:45,15.08829294,0.0001421,53.2165,109.9869,81.8636,278.2517,0.00026358,3.908e-05,0.0,0 STARLINK-4293,1 52989U 22076D   23361.45399837  .00003908  00000-0  26358-3 0  9990,2 52989  53.2165 109.9869 0001421  81.8636 278.2517 15.08829294 81918,6917.913,95.438,540.761,538.795,0.0
